satname,norad_id,inclination_deg,eccentricity,mean_motion_rev_per_day,perigee_km,apogee_km,l1,l2
STARLINK-1470,45772,53.0513,0.0007069,15.21404696,496.7394069072034,506.46598288784844,1 45772U 20038AU  25357.76910058  .00038466  00000+0  16973-2 0  9990,2 45772  53.0513 164.9439 0007069 111.6822 248.4926 15.21404696305497
STARLINK-1482,45773,53.0521,0.0001391,15.06399777,546.2489253217655,548.1755574807221,1 45773U 20038AV  25356.82270312  .00000610  00000+0  59861-4 0  9994,2 45773  53.0521 181.6844 0001391  90.5779 269.5369 15.06399777305177
STARLINK-1496,45780,53.0542,0.0001137,15.22046378,498.8869253966295,500.4509384655503,1 45780U 20038BC  25357.91668980  .01098374  00000+0  43844-1 0  9991,2 45780  53.0542 176.3485 0001137  81.4004 135.5585 15.22046378  5834
STARLINK-1497,45781,53.0321,0.0001955,15.71982138,351.9166113235551,354.5485768348408,1 45781U 20038BD  25357.91668980  .00215629  00000+0  15810-2 0  9998,2 45781  53.0321 100.7294 0001955   8.1330  25.0127 15.71982138  5994
STARLINK-1510,45784,53.0212,0.0006907,16.00513728,268.40114358314895,277.58901743916795,1 45784U 20038BG  25357.68190020  .00466833  10588-3  86643-3 0  9994,2 45784  53.0212  69.9847 0006907 348.0355  12.0509 16.00513728306814
STARLINK-1513,45786,53.0536,0.0001242,15.06423281,546.2800865163154,548.0003253742716,1 45786U 20038BJ  25356.81899096  .00003110  00000+0  22744-3 0  9990,2 45786  53.0536 181.7036 0001242  89.5142 270.5989 15.06423281305176
STARLINK-1522,46027,53.0557,0.0001155,15.06459674,546.2288151251305,547.8285283953073,1 46027U 20055A   25356.60060946 -.00014236  00000+0 -93719-3 0  9992,2 46027  53.0557 112.6824 0001155 142.0855 218.0215 15.06459674297269
STARLINK-1523,46028,53.0548,9.66e-05,15.06411353,546.5077775374457,547.8457481564283,1 46028U 20055B   25357.74324581  .00001375  00000+0  11116-3 0  9996,2 46028  53.0548 107.5563 0000966  85.4410 274.6689 15.06411353297455
STARLINK-1526,46029,53.0557,0.0001226,15.06401507,546.3578920372292,548.0559863711233,1 46029U 20055C   25356.47530087  .00000824  00000+0  74187-4 0  9992,2 46029  53.0557 113.2442 0001226  90.0466 270.0664 15.06401507297250
STARLINK-1555,46032,53.0568,0.0001693,15.06401761,546.0337001350545,548.3786213292788,1 46032U 20055F   25357.58846306  .00000951  00000+0  82726-4 0  9992,2 46032  53.0568 108.2491 0001693  85.4447 274.6736 15.06401761297420
STARLINK-1556,46033,53.0551,0.0001142,15.06399253,546.4229723198641,548.0047224534073,1 46033U 20055G   25356.70752107  .00003270  00000+0  23831-3 0  9999,2 46033  53.0551 112.2039 0001142  85.8716 274.2404 15.06399253297260
STARLINK-1557,46034,53.0545,0.000122,15.06406244,546.3475308543129,548.0373112330471,1 46034U 20055H   25357.57370706  .00001789  00000+0  13894-3 0  9998,2 46034  53.0545 108.3146 0001220  90.3533 269.7596 15.06406244297398
STARLINK-1558,46035,53.0549,0.000118,15.06419145,546.3356976860341,547.9700660981607,1 46035U 20055J   25357.71375384  .00002063  00000+0  15723-3 0  9991,2 46035  53.0549 107.6887 0001180  85.9125 274.1999 15.06419145297446
STARLINK-1560,46036,53.0584,0.0001751,15.06415178,545.9524195576996,548.3776603320885,1 46036U 20055K   25357.69901730 -.00001172  00000+0 -59732-4 0  9990,2 46036  53.0584 107.7580 0001751  93.1054 267.0135 15.06415178297448
STARLINK-1567,46038,53.054,0.0001274,15.06419109,546.2707102795666,548.035274169586,1 46038U 20055M   25357.57738314  .00004634  00000+0  32962-3 0  9994,2 46038  53.0540 108.2990 0001274  86.8217 273.2917 15.06419109297415
STARLINK-1569,46039,53.0541,0.00013,15.06420563,546.2482489021058,548.0488231414711,1 46039U 20055N   25357.78378791  .00002741  00000+0  20271-3 0  9994,2 46039  53.0541 107.3730 0001300  85.0980 275.0157 15.06420563297442
STARLINK-1582,46043,53.0569,0.0001326,15.06393445,546.3133442592907,548.149952024778,1 46043U 20055S   25357.72483896 -.00001115  00000+0 -55950-4 0  9995,2 46043  53.0569 107.6359 0001326 100.5235 259.5904 15.06393445297435
STARLINK-1591,46045,53.0549,0.0001279,15.06399556,546.3271664800586,548.0986709892713,1 46045U 20055U   25356.62274094  .00001440  00000+0  11553-3 0  9992,2 46045  53.0549 112.5843 0001279  82.1007 278.0127 15.06399556297259
STARLINK-1524,46047,53.0567,0.0001428,15.06396125,546.2344928106186,548.2123757506506,1 46047U 20055W   25356.04496795  .00001444  00000+0  11586-3 0  9994,2 46047  53.0567 105.1775 0001428  92.5834 267.5319 15.06396125297325
STARLINK-1527,46048,53.0541,0.0001468,15.06398406,546.1998014375285,548.2330852084879,1 46048U 20055X   25356.57205570  .00000474  00000+0  50733-4 0  9992,2 46048  53.0541 102.8134 0001468  77.1639 282.9514 15.06398406297385
STARLINK-1540,46051,53.0549,0.0001037,15.06404274,546.4803014877425,547.9166160618915,1 46051U 20055AA  25356.67157389  .00001673  00000+0  13119-3 0  9999,2 46051  53.0549 102.3661 0001037  88.0883 272.0224 15.06404274297436
STARLINK-1541,46052,53.0575,0.0001217,15.06396076,546.3807680760947,548.0664008423519,1 46052U 20055AB  25357.71839069 -.00000735  00000+0 -30489-4 0  9998,2 46052  53.0575  97.6643 0001217  76.1018 284.0106 15.06396076297555
STARLINK-1543,46053,53.0569,0.00015,15.06372957,546.255627362013,548.3332567946363,1 46053U 20055AC  25357.72208006  .00004108  00000+0  29472-3 0  9996,2 46053  53.0569  97.6474 0001500  94.4384 265.6777 15.06372957297589
STARLINK-1548,46054,53.0556,0.000112,15.06400818,546.433412129526,547.9846896449235,1 46054U 20055AD  25356.60154232  .00000578  00000+0  57709-4 0  9996,2 46054  53.0556 102.6797 0001120  77.4819 282.6295 15.06400818297417
STARLINK-1554,46055,53.0537,0.0001513,15.06424545,546.0885382146926,548.1841259249768,1 46055U 20055AE  25357.58199006  .00004181  00000+0  29925-3 0  9995,2 46055  53.0537  98.2776 0001513  83.5655 276.5506 15.06424545297562
STARLINK-1564,46058,53.0562,0.0001263,15.06390103,546.367215629989,548.1165663378524,1 46058U 20055AH  25357.59312703 -.00000808  00000+0 -35348-4 0  9991,2 46058  53.0562  98.6921 0001263  87.4451 272.6682 15.06390103297551
STARLINK-1570,46059,53.0544,0.0001073,15.06403725,546.4570526980315,547.9432300485714,1 46059U 20055AJ  25357.55618701  .00003459  00000+0  25093-3 0  9993,2 46059  53.0544  98.3972 0001073  85.2217 274.8894 15.06403725297510
STARLINK-1572,46060,53.0544,0.0001272,15.06420543,546.267700989536,548.0294936454948,1 46060U 20055AK  25357.55249742  .00003062  00000+0  22424-3 0  9995,2 46060  53.0544  98.4104 0001272  88.2185 271.8950 15.06420543297526
